IRIDIUM 155             
1 43573U 18061E   24114.28500066  .00000886  00000+0  30936-3 0  9992
2 43573  86.4021  24.6978 0002370  85.7582 274.3885 14.34206845300858
IRIDIUM 154             
1 43574U 18061F   24114.26599828  .00000242  00000+0  79372-4 0  9999
2 43574  86.4022  24.8007 0002326  90.2481 269.8981 14.34215899300906
IRIDIUM 163             
1 43575U 18061G   24114.24696586  .00001008  00000+0  35277-3 0  9993
2 43575  86.4020  24.7486 0002327  84.2000 275.9462 14.34219484300878
IRIDIUM 156             
1 43576U 18061H   24114.22159741  .00000570  00000+0  19656-3 0  9995
2 43576  86.4018  24.7650 0002097  84.8692 275.2743 14.34221407300868
IRIDIUM 164             
1 43577U 18061J   24114.27234329  .00000152  00000+0  47208-4 0  9998
2 43577  86.4022  24.7728 0001947  91.8476 268.2942 14.34216744300918
IRIDIUM 159             
1 43578U 18061K   24114.31038989  .00000954  00000+0  33354-3 0  9994
2 43578  86.4019  24.7095 0002222  89.1142 271.0309 14.34224296300885
IRIDIUM 180             
1 43922U 19002A   24114.58895166  .00000766  00000+0  26642-3 0  9993
2 43922  86.3948 321.5060 0002154  89.5046 270.6397 14.34223915276532
IRIDIUM 176             
1 43923U 19002B   24114.60769211  .00002501  00000+0  39236-3 0  9990
2 43923  86.6074 321.5238 0002446  86.9563 273.1934 14.72282311283813
IRIDIUM 168             
1 43924U 19002C   24114.58261243  .00000738  00000+0  25656-3 0  9991
2 43924  86.3951 321.5639 0002115  89.5803 270.5635 14.34224145276516
IRIDIUM 173             
1 43925U 19002D   24114.56992701  .00000761  00000+0  26455-3 0  9994
2 43925  86.3948 321.4903 0002139  91.4922 268.6519 14.34224253276492
IRIDIUM 169             
1 43926U 19002E   24114.59357451  .00001004  00000+0  32174-3 0  9991
2 43926  86.4260 353.0884 0004198  68.0539 292.1105 14.38622297277422
IRIDIUM 172             
1 43927U 19002F   24114.56358569  .00000756  00000+0  26266-3 0  9998
2 43927  86.3947 321.4986 0002128  89.9802 270.1637 14.34224382276505
IRIDIUM 175             
1 43928U 19002G   24114.60195485  .00001205  00000+0  18710-3 0  9995
2 43928  86.1463 297.7433 0002242  84.7986 275.3487 14.72254156283807
IRIDIUM 171             
1 43929U 19002H   24114.61432266  .00000757  00000+0  26308-3 0  9991
2 43929  86.3957 321.6966 0001968  87.2423 272.8998 14.34224749276505
IRIDIUM 170             
1 43930U 19002J   24114.61387013  .00002476  00000+0  38842-3 0  9998
2 43930  86.6074 321.5258 0002351  92.3829 267.7657 14.72283100283823
IRIDIUM 167             
1 43931U 19002K   24114.60798042  .00000753  00000+0  26192-3 0  9997
2 43931  86.3946 321.4950 0002105  89.4848 270.6589 14.34225002276501
IRIDIUM 181             
1 56726U 23068S   24114.62446272  .00001217  00000+0  35364-3 0  9994
2 56726  86.8687  12.5456 0002085  82.1155 278.0283 14.43591601 49266
IRIDIUM 177             
1 56727U 23068T   24114.60313775  .00003517  00000+0  45933-3 0  9992
2 56727  86.1988 341.2890 0001931  92.8461 267.2981 14.80229099 50307
IRIDIUM 174             
1 56728U 23068U   24114.59767964  .00003598  00000+0  46982-3 0  9998
2 56728  86.1995 341.3908 0002620  88.8555 271.2966 14.80244275 50303
IRIDIUM 178             
1 56729U 23068V   24114.18664059  .00003823  00000+0  49933-3 0  9995
2 56729  86.5823 356.4353 0002809  90.1625 269.9918 14.80256493 50241
IRIDIUM 179             
1 56730U 23068W   24114.18123138  .00003822  00000+0  49932-3 0  9993
2 56730  86.6838 359.8767 0003031  93.2727 266.8841 14.80249227 50249
